{
  "type": "FeatureCollection",
  "features": [
    {
      "type": "Feature",
      "properties": {
        "norad_id": 31307,
        "name": "GALAXY 17 (G-17)",
        "group": "intelsat",
        "lat": 2.501069059681318,
        "lon": -178.00952336684787,
        "alt_km": 35779.66320064842,
        "timestamp": "2025-12-27T11:23:19.545233+00:00",
        "meta_object_name": "GALAXY 17 (G-17)",
        "meta_object_id": "2007-016B",
        "meta_epoch": "2025-12-27T01:44:56.304096",
        "meta_mean_motion": 1.00271493,
        "meta_eccentricity": 0.0005648,
        "meta_inclination": 2.5341,
        "meta_ra_of_asc_node": 82.1204,
        "meta_arg_of_pericenter": 174.6982,
        "meta_mean_anomaly": 140.2373,
        "meta_ephemeris_type": 0,
        "meta_classification_type": "U",
        "meta_norad_cat_id": 31307,
        "meta_element_set_no": 999,
        "meta_rev_at_epoch": 6807,
        "meta_bstar": 0,
        "meta_mean_motion_dot": -1.85e-06,
        "meta_mean_motion_ddot": 0,
        "tle_line1": "1 31307U 07016B   25361.07287389 -.00000185  00000+0  00000+0 0  9992",
        "tle_line2": "2 31307   2.5341  82.1204 0005648 174.6982 140.2373  1.00271493 68076"
      },
      "geometry": {
        "type": "Point",
        "coordinates": [
          -178.00952336684787,
          2.501069059681318
        ]
      }
    },
    {
      "type": "Feature",
      "properties": {
        "norad_id": 31862,
        "name": "DIRECTV 10",
        "group": "intelsat",
        "lat": 0.005290182517781038,
        "lon": 164.3022645991189,
        "alt_km": 35782.71085756447,
        "timestamp": "2025-12-27T11:23:19.545244+00:00",
        "meta_object_name": "DIRECTV 10",
        "meta_object_id": "2007-032A",
        "meta_epoch": "2025-12-25T09:09:15.831072",
        "meta_mean_motion": 1.00280696,
        "meta_eccentricity": 7.66e-05,
        "meta_inclination": 0.0126,
        "meta_ra_of_asc_node": 126.575,
        "meta_arg_of_pericenter": 111.4706,
        "meta_mean_anomaly": 250.6263,
        "meta_ephemeris_type": 0,
        "meta_classification_type": "U",
        "meta_norad_cat_id": 31862,
        "meta_element_set_no": 999,
        "meta_rev_at_epoch": 4385,
        "meta_bstar": 0,
        "meta_mean_motion_dot": -8.3e-07,
        "meta_mean_motion_ddot": 0,
        "tle_line1": "1 31862U 07032A   25359.38143323 -.00000083  00000+0  00000+0 0  9993",
        "tle_line2": "2 31862   0.0126 126.5750 0000766 111.4706 250.6263  1.00280696 43852"
      },
      "geometry": {
        "type": "Point",
        "coordinates": [
          164.3022645991189,
          0.005290182517781038
        ]
      }
    },
    {
      "type": "Feature",
      "properties": {
        "norad_id": 32253,
        "name": "INTELSAT 11 (IS-11)",
        "group": "intelsat",
        "lat": -0.6762579502439375,
        "lon": 68.00741097568519,
        "alt_km": 36168.13196807324,
        "timestamp": "2025-12-27T11:23:19.545256+00:00",
        "meta_object_name": "INTELSAT 11 (IS-11)",
        "meta_object_id": "2007-044B",
        "meta_epoch": "2025-12-26T22:22:13.902240",
        "meta_mean_motion": 0.99052995,
        "meta_eccentricity": 0.0008662,
        "meta_inclination": 3.1152,
        "meta_ra_of_asc_node": 80.8162,
        "meta_arg_of_pericenter": 172.1534,
        "meta_mean_anomaly": 341.5886,
        "meta_ephemeris_type": 0,
        "meta_classification_type": "U",
        "meta_norad_cat_id": 32253,
        "meta_element_set_no": 999,
        "meta_rev_at_epoch": 6674,
        "meta_bstar": 0,
        "meta_mean_motion_dot": -2.25e-06,
        "meta_mean_motion_ddot": 0,
        "tle_line1": "1 32253U 07044B   25360.93210535 -.00000225  00000+0  00000+0 0  9992",
        "tle_line2": "2 32253   3.1152  80.8162 0008662 172.1534 341.5886  0.99052995 66745"
      },
      "geometry": {
        "type": "Point",
        "coordinates": [
          68.00741097568519,
          -0.6762579502439375
        ]
      }
    },
    {
      "type": "Feature",
      "properties": {
        "norad_id": 32388,
        "name": "HORIZONS-2",
        "group": "intelsat",
        "lat": 2.0226020899422394,
        "lon": -166.83241130826698,
        "alt_km": 35785.78415567476,
        "timestamp": "2025-12-27T11:23:19.545268+00:00",
        "meta_object_name": "HORIZONS-2",
        "meta_object_id": "2007-063B",
        "meta_epoch": "2025-12-27T01:24:36.095040",
        "meta_mean_motion": 1.00268662,
        "meta_eccentricity": 0.0004886,
        "meta_inclination": 2.1568,
        "meta_ra_of_asc_node": 82.8029,
        "meta_arg_of_pericenter": 197.7808,
        "meta_mean_anomaly": 122.5454,
        "meta_ephemeris_type": 0,
        "meta_classification_type": "U",
        "meta_norad_cat_id": 32388,
        "meta_element_set_no": 999,
        "meta_rev_at_epoch": 6608,
        "meta_bstar": 0,
        "meta_mean_motion_dot": -2.32e-06,
        "meta_mean_motion_ddot": 0,
        "tle_line1": "1 32388U 07063B   25361.05875110 -.00000232  00000+0  00000+0 0  9990",
        "tle_line2": "2 32388   2.1568  82.8029 0004886 197.7808 122.5454  1.00268662 66087"
      },
      "geometry": {
        "type": "Point",
        "coordinates": [
          -166.83241130826698,
          2.0226020899422394
        ]
      }
    },
    {
      "type": "Feature",
      "properties": {
        "norad_id": 32729,
        "name": "DIRECTV 11",
        "group": "intelsat",
        "lat": -0.022830182455666436,
        "lon": 167.71753894640818,
        "alt_km": 35786.133082386594,
        "timestamp": "2025-12-27T11:23:19.545279+00:00",
        "meta_object_name": "DIRECTV 11",
        "meta_object_id": "2008-013A",
        "meta_epoch": "2025-12-24T22:53:59.758368",
        "meta_mean_motion": 1.00260442,
        "meta_eccentricity": 0.0001047,
        "meta_inclination": 0.0475,
        "meta_ra_of_asc_node": 199.7105,
        "meta_arg_of_pericenter": 11.4593,
        "meta_mean_anomaly": 126.8496,
        "meta_ephemeris_type": 0,
        "meta_classification_type": "U",
        "meta_norad_cat_id": 32729,
        "meta_element_set_no": 999,
        "meta_rev_at_epoch": 4384,
        "meta_bstar": 0,
        "meta_mean_motion_dot": -1.03e-06,
        "meta_mean_motion_ddot": 0,
        "tle_line1": "1 32729U 08013A   25358.95416387 -.00000103  00000+0  00000+0 0  9994",
        "tle_line2": "2 32729   0.0475 199.7105 0001047  11.4593 126.8496  1.00260442 43842"
      },
      "geometry": {
        "type": "Point",
        "coordinates": [
          167.71753894640818,
          -0.022830182455666436
        ]
      }
    },
    {
      "type": "Feature",
      "properties": {
        "norad_id": 32951,
        "name": "GALAXY 18 (G-18)",
        "group": "intelsat",
        "lat": 0.026353224521521727,
        "lon": 143.99540173198,
        "alt_km": 35797.27523852236,
        "timestamp": "2025-12-27T11:23:19.545291+00:00",
        "meta_object_name": "GALAXY 18 (G-18)",
        "meta_object_id": "2008-024A",
        "meta_epoch": "2025-12-27T04:39:36.425376",
        "meta_mean_motion": 1.002713,
        "meta_eccentricity": 0.000338,
        "meta_inclination": 0.0194,
        "meta_ra_of_asc_node": 7.6676,
        "meta_arg_of_pericenter": 277.1548,
        "meta_mean_anomaly": 117.9994,
        "meta_ephemeris_type": 0,
        "meta_classification_type": "U",
        "meta_norad_cat_id": 32951,
        "meta_element_set_no": 999,
        "meta_rev_at_epoch": 4412,
        "meta_bstar": 0,
        "meta_mean_motion_dot": 0,
        "meta_mean_motion_ddot": 0,
        "tle_line1": "1 32951U 08024A   25361.19417159  .00000000  00000+0  00000+0 0  9996",
        "tle_line2": "2 32951   0.0194   7.6676 0003380 277.1548 117.9994  1.00271300 44121"
      },
      "geometry": {
        "type": "Point",
        "coordinates": [
          143.99540173198,
          0.026353224521521727
        ]
      }
    },
    {
      "type": "Feature",
      "properties": {
        "norad_id": 33153,
        "name": "INTELSAT 25 (IS-25)",
        "group": "intelsat",
        "lat": 1.0142719608608806,
        "lon": -124.48210606069898,
        "alt_km": 35769.452125858654,
        "timestamp": "2025-12-27T11:23:19.545303+00:00",
        "meta_object_name": "INTELSAT 25 (IS-25)",
        "meta_object_id": "2008-034A",
        "meta_epoch": "2025-12-27T02:23:21.689376",
        "meta_mean_motion": 1.00271146,
        "meta_eccentricity": 0.0005021,
        "meta_inclination": 2.2627,
        "meta_ra_of_asc_node": 82.491,
        "meta_arg_of_pericenter": 191.1841,
        "meta_mean_anomaly": 186.5053,
        "meta_ephemeris_type": 0,
        "meta_classification_type": "U",
        "meta_norad_cat_id": 33153,
        "meta_element_set_no": 999,
        "meta_rev_at_epoch": 6397,
        "meta_bstar": 0,
        "meta_mean_motion_dot": -2.02e-06,
        "meta_mean_motion_ddot": 0,
        "tle_line1": "1 33153U 08034A   25361.09955659 -.00000202  00000+0  00000+0 0  9998",
        "tle_line2": "2 33153   2.2627  82.4910 0005021 191.1841 186.5053  1.00271146 63978"
      },
      "geometry": {
        "type": "Point",
        "coordinates": [
          -124.48210606069898,
          1.0142719608608806
        ]
      }
    }
  ]
}